GLOBALSTAR M001 [-]     
1 25162U 98008A   23303.21385613 -.00000014  00000+0  63628-3 0  9994
2 25162  52.0028 267.7889 0002035  68.7133  33.0525 12.38170062169992
GLOBALSTAR M004 [-]     
1 25163U 98008B   23303.33029477 -.00000069  00000+0  19520-3 0  9993
2 25163  51.9994  71.8907 0003510  59.1821 321.9463 12.63341283186470
GLOBALSTAR M002 [-]     
1 25164U 98008C   23303.47288082 -.00000075  00000+0  27835-4 0  9994
2 25164  52.0011 293.8415 0001369 117.9802 242.1157 11.61496821114915
GLOBALSTAR M003 [-]     
1 25165U 98008D   23303.19326877  .00000039  00000+0  13694-2 0  9994
2 25165  51.9789  19.2941 0008259 171.2958 211.2432 12.11948706161049
GLOBALSTAR M014 [-]     
1 25306U 98023A   23303.73308878 -.00000042  00000+0  66010-3 0  9995
2 25306  51.9830 228.9281 0001347  19.2437 349.3926 11.65461477121739
GLOBALSTAR M006 [-]     
1 25307U 98023B   23303.38461398 -.00000038  00000+0  78028-3 0  9991
2 25307  51.9927 260.0150 0003757 109.2009  59.5108 11.58155912147906
GLOBALSTAR M015 [-]     
1 25308U 98023C   23303.04998565  .00000041  00000+0  26133-2 0  9998
2 25308  51.9840 332.0077 0012577  96.0484 283.9984 11.48856489125939
GLOBALSTAR M008 [-]     
1 25309U 98023D   23303.81679400 -.00000082  00000+0  11068-3 0  9996
2 25309  51.9942 124.1233 0002703  22.6979 350.8684 12.36030462164534
